{"type": "FeatureCollection", "features": [{"type": "Feature", "properties": {"kind": "sea", "name": "הים התיכון"}, "geometry": {"type": "Polygon", "coordinates": [[[34.25, 31.28], [34.42, 31.35], [34.48, 31.45], [34.55, 31.6], [34.63, 31.75], [34.7, 31.9], [34.75, 32.05], [34.83, 32.2], [34.87, 32.4], [34.9, 32.55], [34.95, 32.7], [35.07, 32.83], [35.08, 32.96], [35.1, 33.05], [35.1, 33.09], [35.2, 33.27], [35.37, 33.55], [35.65, 34.1], [35.98, 34.63], [35.85, 35.2], [35.6, 36.5], [29.0, 36.5], [29.0, 30.2], [32.35, 31.05], [32.9, 31.18], [33.6, 31.24], [34.25, 31.28]]]}}, {"type": "Feature", "properties": {"kind": "sea", "name": "מפרץ אילת"}, "geometry": {"type": "Polygon", "coordinates": [[[34.99, 29.56], [34.92, 29.49], [34.64, 29.2], [34.32, 28.6], [33.58, 27.95], [33.85, 27.75], [34.62, 28.45], [34.92, 29.05], [35.14, 29.4], [34.99, 29.56]]]}}, {"type": "Feature", "properties": {"kind": "land", "name": "ישראל"}, "geometry": {"type": "Polygon", "coordinates": [[[35.1, 33.09], [35.1, 33.05], [35.08, 32.96], [35.07, 32.83], [34.95, 32.7], [34.9, 32.55], [34.87, 32.4], [34.83, 32.2], [34.75, 32.05], [34.7, 31.9], [34.63, 31.75], [34.55, 31.6], [34.48, 31.45], [34.42, 31.35], [34.35, 31.25], [34.25, 31.1], [34.4, 30.95], [34.55, 30.7], [34.7, 30.4], [34.85, 30.1], [34.92, 29.8], [34.95, 29.55], [34.9, 29.49], [35.0, 29.6], [35.05, 29.9], [35.1, 30.2], [35.15, 30.5], [35.2, 30.8], [35.25, 31.0], [35.3, 31.2], [35.4, 31.35], [35.47, 31.5], [35.52, 31.7], [35.55, 31.85], [35.57, 32.0], [35.57, 32.2], [35.55, 32.4], [35.58, 32.6], [35.6, 32.72], [35.68, 32.9], [35.62, 33.0], [35.63, 33.09], [35.55, 33.28], [35.3, 33.33], [35.1, 33.09]]]}}, {"type": "Feature", "properties": {"kind": "river", "name": "נהר הירדן"}, "geometry": {"type": "LineString", "coordinates": [[35.57, 32.71], [35.55, 32.55], [35.53, 32.4], [35.52, 32.2], [35.53, 32.0], [35.51, 31.85], [35.48, 31.75]]}}, {"type": "Feature", "properties": {"kind": "water", "name": "הכנרת"}, "geometry": {"type": "Polygon", "coordinates": [[[35.660000000000004, 32.82], [35.658936542710855, 32.83823305865503], [35.655778483455016, 32.85591211504919], [35.65062177826491, 32.8725], [35.64362311101833, 32.88749269901709], [35.634995132678064, 32.900434666527495], [35.625, 32.91093266739737], [35.6139414100328, 32.91866772518252], [35.60215537243669, 32.92340481406628], [35.59, 32.925], [35.577844627563316, 32.92340481406628], [35.566058589967206, 32.91866772518252], [35.55500000000001, 32.91093266739737], [35.54500486732194, 32.900434666527495], [35.53637688898168, 32.88749269901709], [35.529378221735094, 32.8725], [35.52422151654499, 32.85591211504919], [35.52106345728915, 32.83823305865503], [35.52, 32.82], [35.52106345728915, 32.80176694134497], [35.52422151654499, 32.78408788495081], [35.529378221735094, 32.7675], [35.53637688898168, 32.75250730098291], [35.54500486732194, 32.739565333472505], [35.55500000000001, 32.72906733260263], [35.566058589967206, 32.72133227481748], [35.577844627563316, 32.71659518593372], [35.59, 32.715], [35.60215537243669, 32.71659518593372], [35.6139414100328, 32.72133227481748], [35.625, 32.72906733260263], [35.634995132678064, 32.739565333472505], [35.64362311101833, 32.75250730098291], [35.65062177826491, 32.7675], [35.655778483455016, 32.78408788495081], [35.658936542710855, 32.80176694134497], [35.660000000000004, 32.82]]]}}, {"type": "Feature", "properties": {"kind": "water", "name": "ים המלח"}, "geometry": {"type": "Polygon", "coordinates": [[[35.545, 31.5], [35.54386058147591, 31.55035797152341], [35.54047694655894, 31.599185841564445], [35.53495190528383, 31.645], [35.52745333323392, 31.686408406809097], [35.51820907072649, 31.722152888504503], [35.5075, 31.751147367097488], [35.495651510749425, 31.772510860027914], [35.48302361332502, 31.785594248373542], [35.47, 31.79], [35.45697638667498, 31.785594248373542], [35.44434848925057, 31.772510860027914], [35.4325, 31.751147367097488], [35.421790929273506, 31.722152888504503], [35.412546666766076, 31.686408406809097], [35.405048094716165, 31.645], [35.39952305344106, 31.599185841564445], [35.396139418524086, 31.55035797152341], [35.394999999999996, 31.5], [35.396139418524086, 31.44964202847659], [35.39952305344106, 31.400814158435555], [35.405048094716165, 31.355], [35.412546666766076, 31.313591593190903], [35.421790929273506, 31.277847111495497], [35.4325, 31.248852632902512], [35.44434848925057, 31.227489139972086], [35.45697638667498, 31.214405751626458], [35.47, 31.21], [35.48302361332502, 31.214405751626458], [35.495651510749425, 31.227489139972086], [35.5075, 31.248852632902512], [35.51820907072649, 31.277847111495497], [35.52745333323392, 31.313591593190903], [35.53495190528383, 31.355], [35.54047694655894, 31.400814158435555], [35.54386058147591, 31.44964202847659], [35.545, 31.5]]]}}]}